[{"OBJECT_NAME":"STARLINK-5394","OBJECT_ID":"2022-177L","EPOCH":"2026-03-09T04:51:00.917280","MEAN_MOTION":15.02532554,"ECCENTRICITY":0.00011629,"INCLINATION":43.0022,"RA_OF_ASC_NODE":135.8367,"ARG_OF_PERICENTER":261.6756,"MEAN_ANOMALY":98.3955,"EPHEMERIS_TYPE":0,"CLASSIFICATION_TYPE":"U","NORAD_CAT_ID":54830,"ELEMENT_SET_NO":999,"REV_AT_EPOCH":17688,"BSTAR":-4.592999e-6,"MEAN_MOTION_DOT":-2.66e-6,"MEAN_MOTION_DDOT":0},{"OBJECT_NAME":"QPS-SAR-10 (WADATSUMI-I)","OBJECT_ID":"2025-104A","EPOCH":"2026-03-09T22:18:19.817856","MEAN_MOTION":15.00816738,"ECCENTRICITY":0.00107055,"INCLINATION":42.0035,"RA_OF_ASC_NODE":106.051,"ARG_OF_PERICENTER":46.9104,"MEAN_ANOMALY":313.2617,"EPHEMERIS_TYPE":0,"CLASSIFICATION_TYPE":"U","NORAD_CAT_ID":64055,"ELEMENT_SET_NO":999,"REV_AT_EPOCH":4451,"BSTAR":0.00049051731,"MEAN_MOTION_DOT":6.161e-5,"MEAN_MOTION_DDOT":0}]
